%YAML 1.1
%TAG !u! tag:unity3d.com,2011:
--- !u!114 &11400000
MonoBehaviour:
  m_ObjectHideFlags: 0
  m_CorrespondingSourceObject: {fileID: 0}
  m_PrefabInstance: {fileID: 0}
  m_PrefabAsset: {fileID: 0}
  m_GameObject: {fileID: 0}
  m_Enabled: 1
  m_EditorHideFlags: 0
  m_Script: {fileID: 11500000, guid: 3c3c350472192c149822725a54cc75ed, type: 3}
  m_Name: Naptune
  m_EditorClassIdentifier: 
  mass: 1.02413e+26
  diameter: 49244000
  orbit:
    semimajorAxis: 4498159745668
    eccentricity: 0.00858587
    inclination: 0.03089308645
    lonAscNode: 2.300068641
    argPeriapsis: -1.515285492
    trueAnomaly: 4.51950224
    meanAnomaly: 0
    anomaly: 0
    semiminorAxis: 0
    meanMotion: 0
    semiLatusRectum: 0
    timeToPeriapsis: 0
    period: 0
  material: {fileID: 2100000, guid: e0e544793e2bde94b857438cf5b1fb95, type: 2}
  bodiesOnOrbit: []
  type: 1
